STARLINK-31275          
1 59197U 24045V   26068.78785110  .00000059  00000+0  11678-4 0  9995
2 59197  43.0053  92.2241 0001998 270.6780  89.3843 15.27567189113174
REAL                    
1 64875U 25154G   26068.72233414  .00022901  00000+0  82904-3 0  9994
2 64875  97.4133 137.2581 0001853 118.5876 241.5550 15.28408058 34830
